CAPELLA-1               
1 43791U 18099AK  21324.97832900  .00005413  00000+0  41275-3 0  9995
2 43791  97.6939  39.5691 0010763 258.0449 102.1024 15.02404956162152
ESEO                    
1 43792U 18099AL  21324.92561247  .00000341  00000+0  35554-4 0  9993
2 43792  97.6463  32.2527 0011983 245.0510 114.9467 14.95836074161650
CSIM-FD                 
1 43793U 18099AM  21324.84962536  .00000828  00000+0  76955-4 0  9991
2 43793  97.6508  32.8699 0011969 240.2351 119.7680 14.96957598161668
HAWK-B                  
1 43794U 18099AN  21325.15520171  .00000567  00000+0  54909-4 0  9997
2 43794  97.6474  33.2134 0013409 247.8525 112.1273 14.96461258161979
ORBWEAVER 1             
1 43795U 18099AP  21325.12668913  .00001663  00000+0  14709-3 0  9993
2 43795  97.6525  33.8066 0012470 241.2401 118.7569 14.97591483161992
THEA                    
1 43796U 18099AQ  21325.17486707  .00000169  00000+0  19852-4 0  9993
2 43796  97.6511  33.3877 0013948 225.8579 134.1497 14.96568948161966
SKYSAT-C12              
1 43797U 18099AR  21324.79045964  .00003159  00000+0  80714-4 0  9994
2 43797  97.1569  31.5818 0001473 133.0441 227.0929 15.40190939165369
ASTROCAST 0.1           
1 43798U 18099AS  21325.17173439  .00000104  00000+0  14214-4 0  9996
2 43798  97.6514  33.3034 0011287 225.0634 134.9672 14.96428156161952
HAWK-C                  
1 43799U 18099AT  21324.88755950  .00000604  00000+0  58214-4 0  9991
2 43799  97.6473  32.8653 0013273 248.6073 111.3732 14.96460982162683
ICEYE-X2                
1 43800U 18099AU  21325.14766931  .00001058  00000+0  99907-4 0  9993
2 43800  97.6509  32.2278 0012839 238.8503 121.1495 14.95762528161896
2018-099AV              
1 43801U 18099AV  21325.16260527  .00001692  00000+0  15334-3 0  9991
2 43801  97.6509  32.5110 0012240 234.9534 125.0498 14.96615121161930
SKYSAT-C13              
1 43802U 18099AW  21324.62690848  .00002340  00000+0  71105-4 0  9995
2 43802  97.1855  30.1234 0003796 340.0878  20.0218 15.35034063164905
JY1SAT (JO-97)          
1 43803U 18099AX  21324.65004804  .00000542  00000+0  53205-4 0  9993
2 43803  97.6473  31.7907 0013865 245.4137 114.5640 14.96105591161844
SUOMI-100               
1 43804U 18099AY  21325.12728179  .00000849  00000+0  80506-4 0  9999
2 43804  97.6468  32.2089 0013889 243.3523 116.6276 14.96065075161927
AL-FARABI 2             
1 43805U 18099AZ  21325.16949702  .00000230  00000+0  25387-4 0  9991
2 43805  97.6504  32.5610 0013650 243.6681 116.3117 14.96353566161944
2018-099BA              
1 43806U 18099BA  21324.84446227 -.00000162  00000+0 -93349-5 0  9990
2 43806  97.6458  31.7219 0013573 244.1471 115.8325 14.95863170161565
EUCROPIS                
1 43807U 18099BB  21324.72043067  .00000534  00000+0  52522-4 0  9991
2 43807  97.6514  32.3824 0011709 239.9506 120.0554 14.96131570161271
POLAR SCOUT YUKON       
1 43808U 18099BC  21324.60635073  .00001231  00000+0  11394-3 0  9999
2 43808  97.6524  32.4401 0010773 249.8238 110.1825 14.96280740161553
CENTAURI-1              
1 43809U 18099BD  21325.00752476  .00001007  00000+0  94697-4 0  9991
2 43809  97.6486  32.4162 0013715 244.7956 115.1844 14.96015316161602
2018-099BE              
1 43810U 18099BE  21325.10678082 -.00000301  00000+0 -21801-4 0  9999
2 43810  97.6365  31.0766 0013018 239.5537 120.4410 14.95895525161478
NEXTSAT-1               
1 43811U 18099BF  21325.16428136  .00000301  00000+0  31956-4 0  9999
2 43811  97.6499  32.5074 0011451 240.2638 119.7427 14.95915063161485
BLACKSKY GLOBAL 2       
1 43812U 18099BG  21324.84533486  .00000068  00000+0  11157-4 0  9990
2 43812  97.6458  31.9233 0012279 246.0950 113.8985 14.95865657161466
BRIO                    
1 43813U 18099BH  21325.18958408  .00000917  00000+0  85167-4 0  9999
2 43813  97.6628  34.5170 0012789 230.9628 129.0456 14.96744021161650
FALCONSAT-6             
1 43815U 18099BK  21325.13553795  .00000607  00000+0  56752-4 0  9990
2 43815  97.6711  32.8048 0019029 234.2142 125.7312 14.97647532161599
SPACEBEE-7              
1 43816U 18099BL  21324.44220906  .00000420  00000+0  42076-4 0  9996
2 43816  97.6535  32.4655 0012204 232.4550 127.5564 14.96429584161385
SPACEBEE-5              
1 43817U 18099BM  21325.17060448  .00001595  00000+0  13960-3 0  9994
2 43817  97.6653  34.9724 0011721 226.9995 133.0246 14.98087843161564
SPACEBEE-6              
1 43818U 18099BN  21325.16462577  .00000940  00000+0  86761-4 0  9996
2 43818  97.6572  33.7175 0011943 228.2609 131.7592 14.96930244161665
EXCITE                  
1 43819U 18099BP  21325.16229994 -.00000028  00000+0  26071-5 0  9998
2 43819  97.6461  32.1698 0011965 245.6608 114.3365 14.95742773161507
SEAHAWK-1               
1 43820U 18099BQ  21324.85245355  .00000500  00000+0  49505-4 0  9994
2 43820  97.6436  31.7215 0011475 233.9294 126.0865 14.96108337161281
GEO-KOMPSAT-2A          
1 43823U 18100A   21324.98297199 -.00000327  00000+0  00000+0 0  9997
2 43823   0.0153 315.1847 0002310 301.6230 285.5359  1.00270604 10920
GSAT-11                 
1 43824U 18100B   21324.81646484 -.00000061  00000+0  00000+0 0  9990
2 43824   0.0175 306.0024 0003800 183.2526 298.7276  1.00273150 10763
SAUDISAT 5A             
1 43831U 18102A   21325.10167995  .00000600  00000+0  42443-4 0  9998
2 43831  97.5219  37.8339 0014646 167.5676 253.3591 15.08488853162766
SAUDISAT 5B             
1 43833U 18102C   21325.11949174 -.00000061  00000+0  13881-6 0  9996
2 43833  97.5228  38.6062 0015302 172.8889 246.9650 15.08925689162807
TOMSAT R3 (AEROCUBE 11B)
1 43849U 18104A   21324.57943833  .00002736  00000+0  10934-3 0  9993
2 43849  85.0362 190.2975 0014936 314.3977  45.6042 15.24520898162851
SHIELDS 1               
1 43850U 18104B   21325.06195324  .00001026  00000+0  42820-4 0  9995
2 43850  85.0311 190.3001 0013066 319.9821  40.0457 15.22240899162790
ELECTRON KICK STAGE R/B 
1 43851U 18104C   21324.89930456  .00003203  00000+0  12533-3 0  9995
2 43851  85.0368 189.6979 0012098 302.1679  57.8391 15.25341706162938
STF-1                   
1 43852U 18104D   21324.62327887  .00002407  00000+0  99637-4 0  9991
2 43852  85.0343 191.2147 0012940 337.6453  22.4224 15.23304793162720
2018-104E               
1 43853U 18104E   21324.60205527  .00006803  00000+0  23051-3 0  9996
2 43853  85.0306 187.2913 0012452 294.8298  65.1653 15.30279853163070
2018-104F               
1 43854U 18104F   21324.90556797  .00003268  00000+0  12561-3 0  9994
2 43854  85.0296 188.2396 0014541 295.9146  64.0599 15.25911380162955
CHOMPTT                 
1 43855U 18104G   21325.09165172  .00002130  00000+0  84277-4 0  9990
2 43855  85.0382 189.6599 0014545 292.1544  67.8155 15.24714869162958
CP11 (ISX)              
1 43856U 18104H   21324.88953229  .00002052  00000+0  86544-4 0  9997
2 43856  85.0343 191.5118 0013340 343.6235  16.4574 15.22570810162720
DAVINCI                 
1 43857U 18104J   21324.88242082  .00005291  00000+0  19506-3 0  9997
2 43857  85.0326 189.1573 0012592 321.4065  38.6278 15.27469453162949
2018-104K               
1 43858U 18104K   21324.60998987  .00001962  00000+0  81314-4 0  9998
2 43858  85.0340 190.8615 0014395 328.8938  31.1450 15.23112475162748
2018-104L               
1 43859U 18104L   21324.90628272  .00001881  00000+0  77871-4 0  9992
2 43859  85.0316 190.2571 0011401 322.7759  37.2692 15.23146384162792
SHFT 1 (GOERGEN)        
1 43860U 18104M   21324.89305884  .00008127  00000+0  28315-3 0  9991
2 43860  85.0330 188.5106 0009009 308.1618  51.8815 15.29442482163027
TOMSAT EAGLESCOUT       
1 43861U 18104N   21324.79494296  .00002308  00000+0  92973-4 0  9994
2 43861  85.0442 191.5341 0013871 314.4980  45.5128 15.24175542162842
GSAT-7A                 
1 43864U 18105A   21325.11345052  .00000043  00000+0  00000+0 0  9999
2 43864   0.0177 276.7184 0003285 315.5356 291.7383  1.00272430 10725
COSMOS 2533             
1 43867U 18107A   21324.87216296 -.00000023  00000+0  00000+0 0  9992
2 43867   0.0046  53.4131 0000631 328.7034  61.9796  1.00276144 10671
HONGYUN 1               
1 43871U 18108A   21325.02281078 -.00000023  00000+0  34838-4 0  9997
2 43871  99.8946 340.9708 0012303 182.6698 177.4372 13.50517562143767
NAVSTAR 77 (USA 289)    
1 43873U 18109A   21324.78335823  .00000068  00000+0  00000+0 0  9997
2 43873  55.0542 158.1307 0015497 188.9976 181.2163  2.00563225 21591
TJS-3                   
1 43874U 18110A   21324.87156119  .00000071  00000+0  00000+0 0  9993
2 43874   0.0912  88.6217 0001144 175.2961 169.0239  1.00277296 10671
KANOPUS-V 5             
1 43876U 18111A   21325.44219497  .00000105  00000+0  80920-5 0  9992
2 43876  97.4378 232.0947 0001957  84.4200  26.2082 15.19656249158951
KANOPUS-V 6             
1 43877U 18111B   21325.02436544  .00000542  00000+0  28589-4 0  9998
2 43877  97.4376 231.6861 0001851  64.2418  64.0527 15.19649811158883
ISAT                    
1 43879U 18111D   21325.16605809  .00001539  00000+0  13893-3 0  9995
2 43879  97.6744 229.5673 0011377 303.2444  56.7695 14.96915118156491
UWE-4                   
1 43880U 18111E   21324.99626438  .00000504  00000+0  48608-4 0  9992
2 43880  97.6767 229.9717 0011173 303.7462  56.2695 14.97127522156502
D-STAR ONE (SPARROW)    
1 43881U 18111F   21324.69329046  .00001445  00000+0  12983-3 0  9996
2 43881  97.6786 229.8386 0010776 303.3051  56.7138 14.97202296158469
LEMUR-2-CHRISTINAHOLT   
1 43882U 18111G   21324.70129242  .00001653  00000+0  14557-3 0  9995
2 43882  97.6814 230.6097 0009859 304.8312  55.1982 14.97817179158504
LEMUR-2-TINYKEV         
1 43883U 18111H   21324.71774490  .00000701  00000+0  64363-4 0  9992
2 43883  97.6812 230.7616 0010451 305.2534  54.7710 14.97936842158516
LEMUR-2-REMY-COLTON     
1 43884U 18111J   21325.11884969  .00000526  00000+0  49315-4 0  9996
2 43884  97.6838 231.4588 0010361 304.2359  55.7881 14.98108760156592
